{
  "type": "FeatureCollection",
  "features": [
    {
      "type": "Feature",
      "properties": {
        "norad_id": 64902,
        "name": "CO3D 2",
        "group": "resource",
        "lat": -7.623120021501529,
        "lon": -118.94068228873633,
        "alt_km": 511.52338596032405,
        "timestamp": "2025-12-11T18:59:45.724390+00:00",
        "meta_object_name": "CO3D 2",
        "meta_object_id": "2025-156D",
        "meta_epoch": "2025-12-09T12:27:23.938848",
        "meta_mean_motion": 15.20057842,
        "meta_eccentricity": 0.00090681,
        "meta_inclination": 97.4213,
        "meta_ra_of_asc_node": 59.8234,
        "meta_arg_of_pericenter": 303.4369,
        "meta_mean_anomaly": 56.5998,
        "meta_ephemeris_type": 0,
        "meta_classification_type": "U",
        "meta_norad_cat_id": 64902,
        "meta_element_set_no": 999,
        "meta_rev_at_epoch": 2071,
        "meta_bstar": 0.00028838885,
        "meta_mean_motion_dot": 6.16e-05,
        "meta_mean_motion_ddot": 0,
        "tle_line1": "1 64902U 25156D   25343.51902707  .00006160  00000+0  28839-3 0  9993",
        "tle_line2": "2 64902  97.4213  59.8234 0009068 303.4369  56.5998 15.20057842 20717"
      },
      "geometry": {
        "type": "Point",
        "coordinates": [
          -118.94068228873633,
          -7.623120021501529
        ]
      }
    },
    {
      "type": "Feature",
      "properties": {
        "norad_id": 64903,
        "name": "CO3D 1",
        "group": "resource",
        "lat": -8.300584524637857,
        "lon": -119.02077636747438,
        "alt_km": 509.22501017951254,
        "timestamp": "2025-12-11T18:59:45.724400+00:00",
        "meta_object_name": "CO3D 1",
        "meta_object_id": "2025-156E",
        "meta_epoch": "2025-12-11T07:06:45.658656",
        "meta_mean_motion": 15.20231893,
        "meta_eccentricity": 9.274e-05,
        "meta_inclination": 97.4338,
        "meta_ra_of_asc_node": 61.5827,
        "meta_arg_of_pericenter": 96.8737,
        "meta_mean_anomaly": 263.2603,
        "meta_ephemeris_type": 0,
        "meta_classification_type": "U",
        "meta_norad_cat_id": 64903,
        "meta_element_set_no": 999,
        "meta_rev_at_epoch": 2098,
        "meta_bstar": 0.00082792283,
        "meta_mean_motion_dot": 0.00017914,
        "meta_mean_motion_ddot": 0,
        "tle_line1": "1 64903U 25156E   25345.29636179  .00017914  00000+0  82792-3 0  9995",
        "tle_line2": "2 64903  97.4338  61.5827 0000927  96.8737 263.2603 15.20231893 20980"
      },
      "geometry": {
        "type": "Point",
        "coordinates": [
          -119.02077636747438,
          -8.300584524637857
        ]
      }
    },
    {
      "type": "Feature",
      "properties": {
        "norad_id": 66514,
        "name": "SENTINEL-6B",
        "group": "resource",
        "lat": 54.37981278283162,
        "lon": -157.2512078013461,
        "alt_km": 1334.1033523808883,
        "timestamp": "2025-12-11T18:59:45.724411+00:00",
        "meta_object_name": "SENTINEL-6B",
        "meta_object_id": "2025-264A",
        "meta_epoch": "2025-12-08T23:22:28.347744",
        "meta_mean_motion": 12.8403254,
        "meta_eccentricity": 0.00210881,
        "meta_inclination": 66.0391,
        "meta_ra_of_asc_node": 170.2706,
        "meta_arg_of_pericenter": 268.225,
        "meta_mean_anomaly": 91.6352,
        "meta_ephemeris_type": 0,
        "meta_classification_type": "U",
        "meta_norad_cat_id": 66514,
        "meta_element_set_no": 999,
        "meta_rev_at_epoch": 280,
        "meta_bstar": -0.0054273268,
        "meta_mean_motion_dot": -1.368e-05,
        "meta_mean_motion_ddot": 0,
        "tle_line1": "1 66514U 25264A   25342.97393921 -.00001368  00000+0 -54273-2 0  9992",
        "tle_line2": "2 66514  66.0391 170.2706 0021088 268.2250  91.6352 12.84032540  2801"
      },
      "geometry": {
        "type": "Point",
        "coordinates": [
          -157.2512078013461,
          54.37981278283162
        ]
      }
    }
  ]
}